{
    "links": {
        "self": "http://www.neowsapp.com/rest/v1/neo/3297204?api_key=iIulBulltgU6a56xZRHN4H3l9WmuAYTsLGpBGhQ2"
    },
    "id": "3297204",
    "neo_reference_id": "3297204",
    "name": "(2005 UF3)",
    "designation": "2005 UF3",
    "nasa_jpl_url": "http://ssd.jpl.nasa.gov/sbdb.cgi?sstr=3297204",
    "absolute_magnitude_h": 21.8,
    "estimated_diameter": {
        "kilometers": {
            "estimated_diameter_min": 0.1160259082,
            "estimated_diameter_max": 0.2594418179
        },
        "meters": {
            "estimated_diameter_min": 116.0259082094,
            "estimated_diameter_max": 259.4418179074
        },
        "miles": {
            "estimated_diameter_min": 0.0720951346,
            "estimated_diameter_max": 0.1612096218
        },
        "feet": {
            "estimated_diameter_min": 380.6624406898,
            "estimated_diameter_max": 851.1870938635
        }
    },
    "is_potentially_hazardous_asteroid": false,
    "close_approach_data": [
        {
            "close_approach_date": "2000-10-22",
            "close_approach_date_full": "2000-Oct-22 21:11",
            "epoch_date_close_approach": 972249060000,
            "relative_velocity": {
                "kilometers_per_second": "19.3421450569",
                "kilometers_per_hour": "69631.7222048756",
                "miles_per_hour": "43266.4442778018"
            },
            "miss_distance": {
                "astronomical": "0.4102444388",
                "lunar": "159.5850866932",
                "kilometers": "61371694.223825356",
                "miles": "38134602.4656716728"
            },
            "orbiting_body": "Earth"
        },
        {
            "close_approach_date": "2005-10-29",
            "close_approach_date_full": "2005-Oct-29 09:29",
            "epoch_date_close_approach": 1130578140000,
            "relative_velocity": {
                "kilometers_per_second": "14.5584259746",
                "kilometers_per_hour": "52410.3335086781",
                "miles_per_hour": "32565.7430626561"
            },
            "miss_distance": {
                "astronomical": "0.2380463144",
                "lunar": "92.6000163016",
                "kilometers": "35611221.595590328",
                "miles": "22127787.0203814064"
            },
            "orbiting_body": "Earth"
        }
    ],
    "orbital_data": {
        "orbit_id": "9",
        "orbit_determination_date": "2017-04-06 09:10:07",
        "first_observation_date": "2005-10-25",
        "last_observation_date": "2005-11-06",
        "data_arc_in_days": 12,
        "observations_used": 30,
        "orbit_uncertainty": "8",
        "minimum_orbit_intersection": ".213281",
        "jupiter_tisserand_invariant": "3.777",
        "epoch_osculation": "2453671.5",
        "eccentricity": ".386305203419364",
        "semi_major_axis": "1.860047030428836",
        "inclination": "27.36972778998327",
        "ascending_node_longitude": "208.152559781964",
        "orbital_period": "926.5829719647329",
        "perihelion_distance": "1.141501183969441",
        "perihelion_argument": "220.930376736995",
        "aphelion_distance": "2.578592876888232",
        "perihelion_time": "2453713.881585067745",
        "mean_anomaly": "343.5337243549421",
        "mean_motion": ".3885242993799611",
        "equinox": "J2000",
        "orbit_class": {
            "orbit_class_type": "AMO",
            "orbit_class_description": "Near-Earth asteroid orbits similar to that of 1221 Amor",
            "orbit_class_range": "1.017 AU < q (perihelion) < 1.3 AU"
        }
    },
    "is_sentry_object": false
}